{
    "links": {
        "self": "http://www.neowsapp.com/rest/v1/neo/3167358?api_key=iIulBulltgU6a56xZRHN4H3l9WmuAYTsLGpBGhQ2"
    },
    "id": "3167358",
    "neo_reference_id": "3167358",
    "name": "(2003 WW26)",
    "designation": "2003 WW26",
    "nasa_jpl_url": "http://ssd.jpl.nasa.gov/sbdb.cgi?sstr=3167358",
    "absolute_magnitude_h": 22.5,
    "estimated_diameter": {
        "kilometers": {
            "estimated_diameter_min": 0.0840533402,
            "estimated_diameter_max": 0.1879489824
        },
        "meters": {
            "estimated_diameter_min": 84.0533402073,
            "estimated_diameter_max": 187.9489824394
        },
        "miles": {
            "estimated_diameter_min": 0.0522283081,
            "estimated_diameter_max": 0.1167860472
        },
        "feet": {
            "estimated_diameter_min": 275.7655606856,
            "estimated_diameter_max": 616.6305395464
        }
    },
    "is_potentially_hazardous_asteroid": false,
    "close_approach_data": [
        {
            "close_approach_date": "1991-01-30",
            "close_approach_date_full": "1991-Jan-30 02:57",
            "epoch_date_close_approach": 665204220000,
            "relative_velocity": {
                "kilometers_per_second": "7.6126771825",
                "kilometers_per_hour": "27405.6378570423",
                "miles_per_hour": "17028.7975895605"
            },
            "miss_distance": {
                "astronomical": "1.3340847035",
                "lunar": "518.9589496615",
                "kilometers": "199576230.043181545",
                "miles": "124010918.886113521"
            },
            "orbiting_body": "Juptr"
        },
        {
            "close_approach_date": "2003-11-16",
            "close_approach_date_full": "2003-Nov-16 03:08",
            "epoch_date_close_approach": 1068952080000,
            "relative_velocity": {
                "kilometers_per_second": "27.0041614244",
                "kilometers_per_hour": "97214.9811279408",
                "miles_per_hour": "60405.608690303"
            },
            "miss_distance": {
                "astronomical": "0.0391378116",
                "lunar": "15.2246087124",
                "kilometers": "5854933.251821292",
                "miles": "3638086.8223541496"
            },
            "orbiting_body": "Earth"
        },
        {
            "close_approach_date": "2059-04-16",
            "close_approach_date_full": "2059-Apr-16 04:17",
            "epoch_date_close_approach": 2817692220000,
            "relative_velocity": {
                "kilometers_per_second": "30.7334559299",
                "kilometers_per_hour": "110640.4413474755",
                "miles_per_hour": "68747.6675694911"
            },
            "miss_distance": {
                "astronomical": "0.1713157365",
                "lunar": "66.6418214985",
                "kilometers": "25628469.277881255",
                "miles": "15924792.366841119"
            },
            "orbiting_body": "Earth"
        }
    ],
    "orbital_data": {
        "orbit_id": "15",
        "orbit_determination_date": "2017-04-06 09:13:31",
        "first_observation_date": "2003-11-21",
        "last_observation_date": "2003-12-14",
        "data_arc_in_days": 23,
        "observations_used": 83,
        "orbit_uncertainty": "8",
        "minimum_orbit_intersection": ".0120188",
        "jupiter_tisserand_invariant": "2.990",
        "epoch_osculation": "2452970.5",
        "eccentricity": ".798263528343008",
        "semi_major_axis": "2.388521691518075",
        "inclination": "6.302123250723697",
        "ascending_node_longitude": "57.68098437259602",
        "orbital_period": "1348.317624531503",
        "perihelion_distance": ".4818519385230468",
        "perihelion_argument": "254.6385004643097",
        "aphelion_distance": "4.295191444513103",
        "perihelion_time": "2452915.913179540448",
        "mean_anomaly": "14.57464844180681",
        "mean_motion": ".2669994024034867",
        "equinox": "J2000",
        "orbit_class": {
            "orbit_class_type": "APO",
            "orbit_class_description": "Near-Earth asteroid orbits which cross the Earth’s orbit similar to that of 1862 Apollo",
            "orbit_class_range": "a (semi-major axis) > 1.0 AU; q (perihelion) < 1.017 AU"
        }
    },
    "is_sentry_object": false
}